{"type": "FeatureCollection", "features": [ {"type": "Feature", "properties": {"norad_id": 35475, "name": "COSMOS 2251 DEB", "group": "cosmos-2251-debris", "lat": 67.31627781281416, "lon": -172.67827935814503, "alt_km": 665.5601862696758, "timestamp": "2025-12-23T20:42:37.472258+00:00", "meta": {"OBJECT_NAME": "COSMOS 2251 DEB", "OBJECT_ID": "1993-036ALV", "EPOCH": "2025-12-22T16:36:26.868096", "MEAN_MOTION": 14.69928525, "ECCENTRICITY": 0.00201226, "INCLINATION": 74.022, "RA_OF_ASC_NODE": 146.318, "ARG_OF_PERICENTER": 219.0346, "MEAN_ANOMALY": 140.9374, "EPHEMERIS_TYPE": 0, "CLASSIFICATION_TYPE": "U", "NORAD_CAT_ID": 35475, "ELEMENT_SET_NO": 999, "REV_AT_EPOCH": 65763, "BSTAR": 0.0020453199, "MEAN_MOTION_DOT": 0.00012275, "MEAN_MOTION_DDOT": 0}, "tle": {"line1": "1 35475U 93036ALV 25356.69197764  .00012275  00000+0  20453-2 0  9997", "line2": "2 35475  74.0220 146.3180 0020122 219.0346 140.9374 14.69928525657632"}}, "geometry": {"type": "Point", "coordinates": [-172.67827935814503, 67.31627781281416]}}, {"type": "Feature", "properties": {"norad_id": 35476, "name": "COSMOS 2251 DEB", "group": "cosmos-2251-debris", "lat": 21.101503844894992, "lon": -147.2924037472373, "alt_km": 652.0024061331878, "timestamp": "2025-12-23T20:42:37.472268+00:00", "meta": {"OBJECT_NAME": "COSMOS 2251 DEB", "OBJECT_ID": "1993-036ALW", "EPOCH": "2025-12-22T13:45:48.233952", "MEAN_MOTION": 14.75861708, "ECCENTRICITY": 0.00182953, "INCLINATION": 73.9776, "RA_OF_ASC_NODE": 41.6056, "ARG_OF_PERICENTER": 18.7037, "MEAN_ANOMALY": 130.8164, "EPHEMERIS_TYPE": 0, "CLASSIFICATION_TYPE": "U", "NORAD_CAT_ID": 35476, "ELEMENT_SET_NO": 999, "REV_AT_EPOCH": 88032, "BSTAR": 0.0016082862, "MEAN_MOTION_DOT": 0.00011054, "MEAN_MOTION_DDOT": 0}, "tle": {"line1": "1 35476U 93036ALW 25356.57347493  .00011054  00000+0  16083-2 0  9999", "line2": "2 35476  73.9776  41.6056 0018295  18.7037 130.8164 14.75861708880320"}}, "geometry": {"type": "Point", "coordinates": [-147.2924037472373, 21.101503844894992]}}, {"type": "Feature", "properties": {"norad_id": 35580, "name": "COSMOS 2251 DEB", "group": "cosmos-2251-debris", "lat": -2.2709642390661045, "lon": -19.53740378744307, "alt_km": 758.0558003905107, "timestamp": "2025-12-23T20:42:37.472278+00:00", "meta": {"OBJECT_NAME": "COSMOS 2251 DEB", "OBJECT_ID": "1993-036ALX", "EPOCH": "2025-12-22T19:33:13.925664", "MEAN_MOTION": 13.83921158, "ECCENTRICITY": 0.0280776, "INCLINATION": 73.9007, "RA_OF_ASC_NODE": 161.5885, "ARG_OF_PERICENTER": 164.8747, "MEAN_ANOMALY": 196.0996, "EPHEMERIS_TYPE": 0, "CLASSIFICATION_TYPE": "U", "NORAD_CAT_ID": 35580, "ELEMENT_SET_NO": 999, "REV_AT_EPOCH": 62396, "BSTAR": 0.0019852622, "MEAN_MOTION_DOT": 2.966e-05, "MEAN_MOTION_DDOT": 0}, "tle": {"line1": "1 35580U 93036ALX 25356.81474451  .00002966  00000+0  19853-2 0  9997", "line2": "2 35580  73.9007 161.5885 0280776 164.8747 196.0996 13.83921158623967"}}, "geometry": {"type": "Point", "coordinates": [-19.53740378744307, -2.2709642390661045]}}, {"type": "Feature", "properties": {"norad_id": 35583, "name": "COSMOS 2251 DEB", "group": "cosmos-2251-debris", "lat": 7.8065166670981485, "lon": 11.722807779300966, "alt_km": 844.7946348023315, "timestamp": "2025-12-23T20:42:37.472288+00:00", "meta": {"OBJECT_NAME": "COSMOS 2251 DEB", "OBJECT_ID": "1993-036AMA", "EPOCH": "2025-12-22T06:38:14.014176", "MEAN_MOTION": 13.55351852, "ECCENTRICITY": 0.03850357, "INCLINATION": 73.9158, "RA_OF_ASC_NODE": 196.56, "ARG_OF_PERICENTER": 219.1539, "MEAN_ANOMALY": 138.1132, "EPHEMERIS_TYPE": 0, "CLASSIFICATION_TYPE": "U", "NORAD_CAT_ID": 35583, "ELEMENT_SET_NO": 999, "REV_AT_EPOCH": 82541, "BSTAR": 0.00079490953, "MEAN_MOTION_DOT": 8.63e-06, "MEAN_MOTION_DDOT": 0}, "tle": {"line1": "1 35583U 93036AMA 25356.27655109  .00000863  00000+0  79491-3 0  9990", "line2": "2 35583  73.9158 196.5600 0385035 219.1539 138.1132 13.55351852825417"}}, "geometry": {"type": "Point", "coordinates": [11.722807779300966, 7.8065166670981485]}}, {"type": "Feature", "properties": {"norad_id": 35585, "name": "COSMOS 2251 DEB", "group": "cosmos-2251-debris", "lat": -23.30883886216408, "lon": 156.95546707430017, "alt_km": 797.8193078125896, "timestamp": "2025-12-23T20:42:37.472298+00:00", "meta": {"OBJECT_NAME": "COSMOS 2251 DEB", "OBJECT_ID": "1993-036AMC", "EPOCH": "2025-12-21T09:07:18.442848", "MEAN_MOTION": 13.75269672, "ECCENTRICITY": 0.03103986, "INCLINATION": 73.9717, "RA_OF_ASC_NODE": 333.9847, "ARG_OF_PERICENTER": 244.5384, "MEAN_ANOMALY": 273.7703, "EPHEMERIS_TYPE": 0, "CLASSIFICATION_TYPE": "U", "NORAD_CAT_ID": 35585, "ELEMENT_SET_NO": 999, "REV_AT_EPOCH": 64182, "BSTAR": 0.00073727274, "MEAN_MOTION_DOT": 9.8e-06, "MEAN_MOTION_DDOT": 0}, "tle": {"line1": "1 35585U 93036AMC 25355.38007457  .00000980  00000+0  73727-3 0  9996", "line2": "2 35585  73.9717 333.9847 0310398 244.5384 273.7703 13.75269672641821"}}, "geometry": {"type": "Point", "coordinates": [156.95546707430017, -23.30883886216408]}}, {"type": "Feature", "properties": {"norad_id": 35586, "name": "COSMOS 2251 DEB", "group": "cosmos-2251-debris", "lat": -9.69633007156806, "lon": 107.46394942537339, "alt_km": 810.7276770973258, "timestamp": "2025-12-23T20:42:37.472308+00:00", "meta": {"OBJECT_NAME": "COSMOS 2251 DEB", "OBJECT_ID": "1993-036AMD", "EPOCH": "2025-12-23T04:09:08.280864", "MEAN_MOTION": 13.52091848, "ECCENTRICITY": 0.04042541, "INCLINATION": 74.0191, "RA_OF_ASC_NODE": 285.7624, "ARG_OF_PERICENTER": 158.8543, "MEAN_ANOMALY": 271.7414, "EPHEMERIS_TYPE": 0, "CLASSIFICATION_TYPE": "U", "NORAD_CAT_ID": 35586, "ELEMENT_SET_NO": 999, "REV_AT_EPOCH": 60523, "BSTAR": 0.000355474, "MEAN_MOTION_DOT": 3.71e-06, "MEAN_MOTION_DDOT": 0}, "tle": {"line1": "1 35586U 93036AMD 25357.17301251  .00000371  00000+0  35547-3 0  9997", "line2": "2 35586  74.0191 285.7624 0404254 158.8543 271.7414 13.52091848605231"}}, "geometry": {"type": "Point", "coordinates": [107.46394942537339, -9.69633007156806]}}, {"type": "Feature", "properties": {"norad_id": 35587, "name": "COSMOS 2251 DEB", "group": "cosmos-2251-debris", "lat": 25.004629903883508, "lon": -150.92549121563786, "alt_km": 627.5395637895508, "timestamp": "2025-12-23T20:42:37.472318+00:00", "meta": {"OBJECT_NAME": "COSMOS 2251 DEB", "OBJECT_ID": "1993-036AME", "EPOCH": "2025-12-21T20:41:18.597984", "MEAN_MOTION": 14.71550847, "ECCENTRICITY": 0.01023219, "INCLINATION": 74.0051, "RA_OF_ASC_NODE": 40.6582, "ARG_OF_PERICENTER": 226.293, "MEAN_ANOMALY": 132.9734, "EPHEMERIS_TYPE": 0, "CLASSIFICATION_TYPE": "U", "NORAD_CAT_ID": 35587, "ELEMENT_SET_NO": 999, "REV_AT_EPOCH": 66480, "BSTAR": 0.00023978572, "MEAN_MOTION_DOT": 1.58e-05, "MEAN_MOTION_DDOT": 0}, "tle": {"line1": "1 35587U 93036AME 25355.86202081  .00001580  00000+0  23979-3 0  9992", "line2": "2 35587  74.0051  40.6582 0102321 226.2930 132.9734 14.71550847664800"}}, "geometry": {"type": "Point", "coordinates": [-150.92549121563786, 25.004629903883508]}}, {"type": "Feature", "properties": {"norad_id": 35593, "name": "COSMOS 2251 DEB", "group": "cosmos-2251-debris", "lat": -63.783310740956914, "lon": 123.83647131790633, "alt_km": 743.8898149106935, "timestamp": "2025-12-23T20:42:37.472328+00:00", "meta": {"OBJECT_NAME": "COSMOS 2251 DEB", "OBJECT_ID": "1993-036AML", "EPOCH": "2025-12-22T03:07:10.854336", "MEAN_MOTION": 14.25629866, "ECCENTRICITY": 0.01050344, "INCLINATION": 74.0862, "RA_OF_ASC_NODE": 271.5473, "ARG_OF_PERICENTER": 275.9355, "MEAN_ANOMALY": 82.9829, "EPHEMERIS_TYPE": 0, "CLASSIFICATION_TYPE": "U", "NORAD_CAT_ID": 35593, "ELEMENT_SET_NO": 999, "REV_AT_EPOCH": 85199, "BSTAR": 0.00065796608, "MEAN_MOTION_DOT": 1.626e-05, "MEAN_MOTION_DDOT": 0}, "tle": {"line1": "1 35593U 93036AML 25356.12998674  .00001626  00000+0  65797-3 0  9994", "line2": "2 35593  74.0862 271.5473 0105034 275.9355  82.9829 14.25629866851991"}}, "geometry": {"type": "Point", "coordinates": [123.83647131790633, -63.783310740956914]}}, {"type": "Feature", "properties": {"norad_id": 35594, "name": "COSMOS 2251 DEB", "group": "cosmos-2251-debris", "lat": 7.5441447013114225, "lon": -98.16580046742057, "alt_km": 586.3954764569735, "timestamp": "2025-12-23T20:42:37.472338+00:00", "meta": {"OBJECT_NAME": "COSMOS 2251 DEB", "OBJECT_ID": "1993-036AMM", "EPOCH": "2025-12-21T13:05:05.165088", "MEAN_MOTION": 14.8817141, "ECCENTRICITY": 0.0029279, "INCLINATION": 73.8068, "RA_OF_ASC_NODE": 88.7269, "ARG_OF_PERICENTER": 201.0189, "MEAN_ANOMALY": 158.9789, "EPHEMERIS_TYPE": 0, "CLASSIFICATION_TYPE": "U", "NORAD_CAT_ID": 35594, "ELEMENT_SET_NO": 999, "REV_AT_EPOCH": 88316, "BSTAR": 0.0013268, "MEAN_MOTION_DOT": 0.00012311, "MEAN_MOTION_DDOT": 0}, "tle": {"line1": "1 35594U 93036AMM 25355.54519867  .00012311  00000+0  13268-2 0  9991", "line2": "2 35594  73.8068  88.7269 0029279 201.0189 158.9789 14.88171410883168"}}, "geometry": {"type": "Point", "coordinates": [-98.16580046742057, 7.5441447013114225]}}, {"type": "Feature", "properties": {"norad_id": 35602, "name": "COSMOS 2251 DEB", "group": "cosmos-2251-debris", "lat": 9.893436782334152, "lon": 161.15295530207675, "alt_km": 512.5380133031795, "timestamp": "2025-12-23T20:42:37.472348+00:00", "meta": {"OBJECT_NAME": "COSMOS 2251 DEB", "OBJECT_ID": "1993-036AMV", "EPOCH": "2025-12-21T22:26:51.012096", "MEAN_MOTION": 15.35414257, "ECCENTRICITY": 0.00887347, "INCLINATION": 73.9929, "RA_OF_ASC_NODE": 162.4295, "ARG_OF_PERICENTER": 226.1697, "MEAN_ANOMALY": 293.1785, "EPHEMERIS_TYPE": 0, "CLASSIFICATION_TYPE": "U", "NORAD_CAT_ID": 35602, "ELEMENT_SET_NO": 999, "REV_AT_EPOCH": 90232, "BSTAR": 0.00057034705, "MEAN_MOTION_DOT": 0.00022374, "MEAN_MOTION_DDOT": 0}, "tle": {"line1": "1 35602U 93036AMV 25355.93531264  .00022374  00000+0  57035-3 0  9990", "line2": "2 35602  73.9929 162.4295 0088734 226.1697 293.1785 15.35414257902327"}}, "geometry": {"type": "Point", "coordinates": [161.15295530207675, 9.893436782334152]}}]}